[{"OBJECT_NAME":"STARLINK-30381","OBJECT_ID":"2023-134Q","EPOCH":"2026-03-04T04:00:03.000096","MEAN_MOTION":15.2431477,"ECCENTRICITY":0.0002016,"INCLINATION":43.0008,"RA_OF_ASC_NODE":225.5732,"ARG_OF_PERICENTER":279.7774,"MEAN_ANOMALY":28.4799,"EPHEMERIS_TYPE":0,"CLASSIFICATION_TYPE":"U","NORAD_CAT_ID":57785,"ELEMENT_SET_NO":999,"REV_AT_EPOCH":582,"BSTAR":0.046657,"MEAN_MOTION_DOT":0.0127453,"MEAN_MOTION_DDOT":0},{"OBJECT_NAME":"STARLINK-30382","OBJECT_ID":"2023-134R","EPOCH":"2026-03-03T11:50:39.581088","MEAN_MOTION":15.26744201,"ECCENTRICITY":0.0001192,"INCLINATION":42.9952,"RA_OF_ASC_NODE":229.0935,"ARG_OF_PERICENTER":277.5178,"MEAN_ANOMALY":82.5538,"EPHEMERIS_TYPE":0,"CLASSIFICATION_TYPE":"U","NORAD_CAT_ID":57786,"ELEMENT_SET_NO":999,"REV_AT_EPOCH":13856,"BSTAR":0.00013723695,"MEAN_MOTION_DOT":3.424e-5,"MEAN_MOTION_DDOT":0},{"OBJECT_NAME":"STARLINK-30378","OBJECT_ID":"2023-134S","EPOCH":"2026-03-04T04:00:03.000096","MEAN_MOTION":15.22525384,"ECCENTRICITY":0.0001855,"INCLINATION":43.0001,"RA_OF_ASC_NODE":225.6804,"ARG_OF_PERICENTER":280.0676,"MEAN_ANOMALY":19.7137,"EPHEMERIS_TYPE":0,"CLASSIFICATION_TYPE":"U","NORAD_CAT_ID":57787,"ELEMENT_SET_NO":999,"REV_AT_EPOCH":582,"BSTAR":0.030159,"MEAN_MOTION_DOT":0.00769585,"MEAN_MOTION_DDOT":0},{"OBJECT_NAME":"STARLINK-30387","OBJECT_ID":"2023-134T","EPOCH":"2026-03-04T04:00:03.000096","MEAN_MOTION":15.15470521,"ECCENTRICITY":0.0001772,"INCLINATION":43.0008,"RA_OF_ASC_NODE":213.6699,"ARG_OF_PERICENTER":276.1294,"MEAN_ANOMALY":46.6152,"EPHEMERIS_TYPE":0,"CLASSIFICATION_TYPE":"U","NORAD_CAT_ID":57788,"ELEMENT_SET_NO":999,"REV_AT_EPOCH":582,"BSTAR":0.047285,"MEAN_MOTION_DOT":0.00978198,"MEAN_MOTION_DDOT":0},{"OBJECT_NAME":"STARLINK-30372","OBJECT_ID":"2023-134U","EPOCH":"2026-03-04T03:59:40.841088","MEAN_MOTION":15.2757999,"ECCENTRICITY":0.000113,"INCLINATION":43.0011,"RA_OF_ASC_NODE":109.5673,"ARG_OF_PERICENTER":217.4743,"MEAN_ANOMALY":142.603,"EPHEMERIS_TYPE":0,"CLASSIFICATION_TYPE":"U","NORAD_CAT_ID":57789,"ELEMENT_SET_NO":999,"REV_AT_EPOCH":14002,"BSTAR":2.2529e-5,"MEAN_MOTION_DOT":3.58e-6,"MEAN_MOTION_DDOT":0},{"OBJECT_NAME":"STARLINK-30367","OBJECT_ID":"2023-134W","EPOCH":"2026-03-04T04:00:03.000096","MEAN_MOTION":15.2653497,"ECCENTRICITY":0.000196,"INCLINATION":43.0004,"RA_OF_ASC_NODE":225.6045,"ARG_OF_PERICENTER":269.1797,"MEAN_ANOMALY":63.9477,"EPHEMERIS_TYPE":0,"CLASSIFICATION_TYPE":"U","NORAD_CAT_ID":57791,"ELEMENT_SET_NO":999,"REV_AT_EPOCH":581,"BSTAR":0.003698,"MEAN_MOTION_DOT":0.00099664,"MEAN_MOTION_DDOT":0},{"OBJECT_NAME":"STARLINK-30374","OBJECT_ID":"2023-138B","EPOCH":"2026-03-04T04:00:03.000096","MEAN_MOTION":15.26728571,"ECCENTRICITY":0.0001402,"INCLINATION":42.9999,"RA_OF_ASC_NODE":265.0849,"ARG_OF_PERICENTER":282.8789,"MEAN_ANOMALY":198.27,"EPHEMERIS_TYPE":0,"CLASSIFICATION_TYPE":"U","NORAD_CAT_ID":57809,"ELEMENT_SET_NO":999,"REV_AT_EPOCH":576,"BSTAR":0.00057248,"MEAN_MOTION_DOT":0.00015122,"MEAN_MOTION_DDOT":0},{"OBJECT_NAME":"STARLINK-30394","OBJECT_ID":"2023-138C","EPOCH":"2026-03-04T04:00:03.000096","MEAN_MOTION":15.23404119,"ECCENTRICITY":0.0001493,"INCLINATION":42.9992,"RA_OF_ASC_NODE":265.2159,"ARG_OF_PERICENTER":290.288,"MEAN_ANOMALY":134.4091,"EPHEMERIS_TYPE":0,"CLASSIFICATION_TYPE":"U","NORAD_CAT_ID":57810,"ELEMENT_SET_NO":999,"REV_AT_EPOCH":571,"BSTAR":0.056284,"MEAN_MOTION_DOT":0.01496405,"MEAN_MOTION_DDOT":0},{"OBJECT_NAME":"STARLINK-30379","OBJECT_ID":"2023-138D","EPOCH":"2026-03-04T04:00:03.000096","MEAN_MOTION":15.22104822,"ECCENTRICITY":0.0001426,"INCLINATION":42.9994,"RA_OF_ASC_NODE":265.2274,"ARG_OF_PERICENTER":295.7872,"MEAN_ANOMALY":125.551,"EPHEMERIS_TYPE":0,"CLASSIFICATION_TYPE":"U","NORAD_CAT_ID":57811,"ELEMENT_SET_NO":999,"REV_AT_EPOCH":581,"BSTAR":0.056558,"MEAN_MOTION_DOT":0.01442439,"MEAN_MOTION_DDOT":0},{"OBJECT_NAME":"STARLINK-30395","OBJECT_ID":"2023-138E","EPOCH":"2026-03-04T04:00:03.000096","MEAN_MOTION":15.21896941,"ECCENTRICITY":0.0001431,"INCLINATION":42.9995,"RA_OF_ASC_NODE":265.2016,"ARG_OF_PERICENTER":299.89,"MEAN_ANOMALY":132.4379,"EPHEMERIS_TYPE":0,"CLASSIFICATION_TYPE":"U","NORAD_CAT_ID":57812,"ELEMENT_SET_NO":999,"REV_AT_EPOCH":576,"BSTAR":0.057099,"MEAN_MOTION_DOT":0.0144788,"MEAN_MOTION_DDOT":0},{"OBJECT_NAME":"STARLINK-30403","OBJECT_ID":"2023-138F","EPOCH":"2026-03-04T04:00:03.000096","MEAN_MOTION":15.23856887,"ECCENTRICITY":0.0001525,"INCLINATION":43.0009,"RA_OF_ASC_NODE":265.3412,"ARG_OF_PERICENTER":285.0272,"MEAN_ANOMALY":87.3399,"EPHEMERIS_TYPE":0,"CLASSIFICATION_TYPE":"U","NORAD_CAT_ID":57813,"ELEMENT_SET_NO":999,"REV_AT_EPOCH":526,"BSTAR":0.040583,"MEAN_MOTION_DOT":0.01078172,"MEAN_MOTION_DDOT":0},{"OBJECT_NAME":"STARLINK-30413","OBJECT_ID":"2023-138G","EPOCH":"2026-03-04T04:00:03.000096","MEAN_MOTION":15.16614677,"ECCENTRICITY":0.0001957,"INCLINATION":43.0003,"RA_OF_ASC_NODE":265.4357,"ARG_OF_PERICENTER":291.4437,"MEAN_ANOMALY":42.2149,"EPHEMERIS_TYPE":0,"CLASSIFICATION_TYPE":"U","NORAD_CAT_ID":57814,"ELEMENT_SET_NO":999,"REV_AT_EPOCH":551,"BSTAR":0.05238,"MEAN_MOTION_DOT":0.01132164,"MEAN_MOTION_DDOT":0},{"OBJECT_NAME":"STARLINK-30398","OBJECT_ID":"2023-138H","EPOCH":"2026-03-04T04:00:03.000096","MEAN_MOTION":15.2154916,"ECCENTRICITY":0.0001991,"INCLINATION":42.9988,"RA_OF_ASC_NODE":265.4366,"ARG_OF_PERICENTER":290.7277,"MEAN_ANOMALY":39.6042,"EPHEMERIS_TYPE":0,"CLASSIFICATION_TYPE":"U","NORAD_CAT_ID":57815,"ELEMENT_SET_NO":999,"REV_AT_EPOCH":582,"BSTAR":0.066118,"MEAN_MOTION_DOT":0.01655279,"MEAN_MOTION_DDOT":0},{"OBJECT_NAME":"STARLINK-30386","OBJECT_ID":"2023-138J","EPOCH":"2026-03-04T04:00:03.000096","MEAN_MOTION":15.18676502,"ECCENTRICITY":0.0001928,"INCLINATION":42.9997,"RA_OF_ASC_NODE":265.3141,"ARG_OF_PERICENTER":301.0396,"MEAN_ANOMALY":81.31,"EPHEMERIS_TYPE":0,"CLASSIFICATION_TYPE":"U","NORAD_CAT_ID":57816,"ELEMENT_SET_NO":999,"REV_AT_EPOCH":582,"BSTAR":0.042571,"MEAN_MOTION_DOT":0.00977281,"MEAN_MOTION_DDOT":0},{"OBJECT_NAME":"STARLINK-30391","OBJECT_ID":"2023-138K","EPOCH":"2026-03-04T04:00:03.000096","MEAN_MOTION":15.18772908,"ECCENTRICITY":0.00018,"INCLINATION":43.0005,"RA_OF_ASC_NODE":265.3864,"ARG_OF_PERICENTER":286.4781,"MEAN_ANOMALY":66.0774,"EPHEMERIS_TYPE":0,"CLASSIFICATION_TYPE":"U","NORAD_CAT_ID":57817,"ELEMENT_SET_NO":999,"REV_AT_EPOCH":582,"BSTAR":0.034783,"MEAN_MOTION_DOT":0.0078767,"MEAN_MOTION_DDOT":0},{"OBJECT_NAME":"STARLINK-30401","OBJECT_ID":"2023-138L","EPOCH":"2026-03-04T04:00:03.000096","MEAN_MOTION":15.18426202,"ECCENTRICITY":0.0002185,"INCLINATION":42.9998,"RA_OF_ASC_NODE":265.3355,"ARG_OF_PERICENTER":301.2726,"MEAN_ANOMALY":68.2009,"EPHEMERIS_TYPE":0,"CLASSIFICATION_TYPE":"U","NORAD_CAT_ID":57818,"ELEMENT_SET_NO":999,"REV_AT_EPOCH":567,"BSTAR":0.049146,"MEAN_MOTION_DOT":0.01117443,"MEAN_MOTION_DDOT":0},{"OBJECT_NAME":"STARLINK-30390","OBJECT_ID":"2023-138M","EPOCH":"2026-03-04T04:00:03.000096","MEAN_MOTION":15.19205156,"ECCENTRICITY":0.0001812,"INCLINATION":42.999,"RA_OF_ASC_NODE":265.2975,"ARG_OF_PERICENTER":283.5252,"MEAN_ANOMALY":106.4114,"EPHEMERIS_TYPE":0,"CLASSIFICATION_TYPE":"U","NORAD_CAT_ID":57819,"ELEMENT_SET_NO":999,"REV_AT_EPOCH":577,"BSTAR":0.067177,"MEAN_MOTION_DOT":0.01589157,"MEAN_MOTION_DDOT":0},{"OBJECT_NAME":"STARLINK-30409","OBJECT_ID":"2023-138N","EPOCH":"2026-03-04T04:00:03.000096","MEAN_MOTION":15.23408905,"ECCENTRICITY":0.0001859,"INCLINATION":43.0005,"RA_OF_ASC_NODE":264.8785,"ARG_OF_PERICENTER":285.0616,"MEAN_ANOMALY":273.0499,"EPHEMERIS_TYPE":0,"CLASSIFICATION_TYPE":"U","NORAD_CAT_ID":57820,"ELEMENT_SET_NO":999,"REV_AT_EPOCH":561,"BSTAR":0.038244,"MEAN_MOTION_DOT":0.01010751,"MEAN_MOTION_DDOT":0},{"OBJECT_NAME":"STARLINK-30415","OBJECT_ID":"2023-138P","EPOCH":"2026-03-04T04:00:03.000096","MEAN_MOTION":15.17458676,"ECCENTRICITY":0.0002093,"INCLINATION":43.0001,"RA_OF_ASC_NODE":265.4231,"ARG_OF_PERICENTER":309.847,"MEAN_ANOMALY":25.1046,"EPHEMERIS_TYPE":0,"CLASSIFICATION_TYPE":"U","NORAD_CAT_ID":57821,"ELEMENT_SET_NO":999,"REV_AT_EPOCH":571,"BSTAR":0.085225,"MEAN_MOTION_DOT":0.01923049,"MEAN_MOTION_DDOT":0},{"OBJECT_NAME":"STARLINK-30407","OBJECT_ID":"2023-138R","EPOCH":"2026-03-03T15:43:01.276896","MEAN_MOTION":15.27583115,"ECCENTRICITY":5.143e-5,"INCLINATION":42.9991,"RA_OF_ASC_NODE":162.8652,"ARG_OF_PERICENTER":228.5616,"MEAN_ANOMALY":131.5191,"EPHEMERIS_TYPE":0,"CLASSIFICATION_TYPE":"U","NORAD_CAT_ID":57823,"ELEMENT_SET_NO":999,"REV_AT_EPOCH":13904,"BSTAR":-1.6924474e-5,"MEAN_MOTION_DOT":-7.27e-6,"MEAN_MOTION_DDOT":0},{"OBJECT_NAME":"STARLINK-30408","OBJECT_ID":"2023-138S","EPOCH":"2026-03-04T04:00:03.000096","MEAN_MOTION":15.24960637,"ECCENTRICITY":0.0002194,"INCLINATION":42.9984,"RA_OF_ASC_NODE":264.841,"ARG_OF_PERICENTER":277.9839,"MEAN_ANOMALY":302.2611,"EPHEMERIS_TYPE":0,"CLASSIFICATION_TYPE":"U","NORAD_CAT_ID":57824,"ELEMENT_SET_NO":999,"REV_AT_EPOCH":571,"BSTAR":0.051955,"MEAN_MOTION_DOT":0.01441627,"MEAN_MOTION_DDOT":0},{"OBJECT_NAME":"STARLINK-30377","OBJECT_ID":"2023-138T","EPOCH":"2026-03-04T04:00:03.000096","MEAN_MOTION":15.20693811,"ECCENTRICITY":0.0001751,"INCLINATION":42.9988,"RA_OF_ASC_NODE":264.9471,"ARG_OF_PERICENTER":255.4483,"MEAN_ANOMALY":279.604,"EPHEMERIS_TYPE":0,"CLASSIFICATION_TYPE":"U","NORAD_CAT_ID":57825,"ELEMENT_SET_NO":999,"REV_AT_EPOCH":581,"BSTAR":0.075862,"MEAN_MOTION_DOT":0.01874093,"MEAN_MOTION_DDOT":0},{"OBJECT_NAME":"STARLINK-30422","OBJECT_ID":"2023-138U","EPOCH":"2026-03-04T04:00:03.000096","MEAN_MOTION":15.19260997,"ECCENTRICITY":0.0001332,"INCLINATION":42.9997,"RA_OF_ASC_NODE":265.0348,"ARG_OF_PERICENTER":288.8287,"MEAN_ANOMALY":209.9172,"EPHEMERIS_TYPE":0,"CLASSIFICATION_TYPE":"U","NORAD_CAT_ID":57826,"ELEMENT_SET_NO":999,"REV_AT_EPOCH":581,"BSTAR":0.072923,"MEAN_MOTION_DOT":0.01713727,"MEAN_MOTION_DDOT":0}]
